NORAD_CAT_ID,OBJECT_NAME,OBJECT_TYPE,EPOCH,MEAN_MOTION,ECCENTRICITY,INCLINATION,RA_OF_ASC_NODE,ARG_OF_PERICENTER,MEAN_ANOMALY,BSTAR,MEAN_MOTION_DOT,MEAN_MOTION_DDOT,TLE_LINE0,TLE_LINE1,TLE_LINE2,SEMIMAJOR_AXIS,PERIOD,APOGEE,PERIGEE,DECAYED
54163.0,STARLINK-5161,PAYLOAD,2023-04-04 08:55:58,15.08855164,0.0001607,53.2162,129.1277,119.2011,240.9142,-0.00011518,-2.121e-05,0.0,0 STARLINK-5161,1 54163U 22141G   23094.37220291 -.00002121  00000-0 -11518-3 0  9990,2 54163  53.2162 129.1277 0001607 119.2011 240.9142 15.08855164 24278,6917.834,95.437,540.811,538.587,0.0
54163.0,STARLINK-5161,PAYLOAD,2023-04-04 13:42:07,15.08853049,0.0001488,53.2162,128.2351,102.1259,257.99,0.00012359,1.68e-05,0.0,0 STARLINK-5161,1 54163U 22141G   23094.57092377  .00001680  00000-0  12359-3 0  9995,2 54163  53.2162 128.2351 0001488 102.1259 257.9900 15.08853049 24307,6917.841,95.437,540.735,538.676,0.0
54163.0,STARLINK-5161,PAYLOAD,2023-04-05 08:46:46,15.08837703,0.0001361,53.2159,124.6681,97.3201,262.7945,2.4815e-05,1.07e-06,0.0,0 STARLINK-5161,1 54163U 22141G   23095.36581335  .00000107  00000-0  24815-4 0  9994,2 54163  53.2159 124.6681 0001361  97.3201 262.7945 15.08837703 24426,6917.887,95.438,540.694,538.811,0.0
54163.0,STARLINK-5161,PAYLOAD,2023-04-05 18:19:05,15.08838153,0.0001384,53.2163,122.8827,98.5119,261.603,2.9225e-05,1.77e-06,0.0,0 STARLINK-5161,1 54163U 22141G   23095.76325331  .00000177  00000-0  29225-4 0  9997,2 54163  53.2163 122.8827 0001384  98.5119 261.6030 15.08838153 24488,6917.886,95.438,540.708,538.794,0.0
54163.0,STARLINK-5161,PAYLOAD,2023-04-06 11:48:19,15.08847894,0.000139,53.217,119.6106,101.8564,258.2584,0.00015086,2.114e-05,0.0,0 STARLINK-5161,1 54163U 22141G   23096.49188804  .00002114  00000-0  15086-3 0  9992,2 54163  53.2170 119.6106 0001390 101.8564 258.2584 15.08847894 24599,6917.856,95.437,540.683,538.76,0.0
54163.0,STARLINK-5161,PAYLOAD,2023-04-06 13:23:42,15.08849715,0.0001341,53.2169,119.3138,98.8898,261.2246,0.0002568,3.802e-05,0.0,0 STARLINK-5161,1 54163U 22141G   23096.55812793  .00003802  00000-0  25680-3 0  9996,2 54163  53.2169 119.3138 0001341  98.8898 261.2246 15.08849715 24605,6917.851,95.437,540.643,538.788,0.0
54163.0,STARLINK-5161,PAYLOAD,2023-04-06 18:09:51,15.08838911,5.09e-05,53.2175,118.425,165.7559,194.3448,-5.0251e-05,-1.087e-05,0.0,0 STARLINK-5161,1 54163U 22141G   23096.75684519 -.00001087  00000-0 -50251-4 0  9999,2 54163  53.2175 118.4250 0000509 165.7559 194.3448 15.08838911 24639,6917.884,95.438,540.101,539.397,0.0
54163.0,STARLINK-5161,PAYLOAD,2023-04-07 11:39:06,15.08838939,0.000129,53.2163,115.1529,101.2121,258.9016,4.6029e-05,4.45e-06,0.0,0 STARLINK-5161,1 54163U 22141G   23097.48549300  .00000445  00000-0  46029-4 0  9991,2 54163  53.2163 115.1529 0001290 101.2121 258.9016 15.08838939 24747,6917.884,95.438,540.641,538.856,0.0
54163.0,STARLINK-5161,PAYLOAD,2023-04-08 08:19:07,15.08847159,0.0001308,53.2159,111.288,106.8328,253.2807,0.00010395,1.367e-05,0.0,0 STARLINK-5161,1 54163U 22141G   23098.34661003  .00001367  00000-0  10395-3 0  9992,2 54163  53.2159 111.2880 0001308 106.8328 253.2807 15.08847159 24873,6917.859,95.437,540.628,538.819,0.0
54163.0,STARLINK-5161,PAYLOAD,2023-04-08 13:05:16,15.08850888,0.0001255,53.2159,110.3953,96.9486,263.1648,0.00017789,2.545e-05,0.0,0 STARLINK-5161,1 54163U 22141G   23098.54532798  .00002545  00000-0  17789-3 0  9995,2 54163  53.2159 110.3953 0001255  96.9486 263.1648 15.08850888 24909,6917.847,95.437,540.58,538.844,0.0
54163.0,STARLINK-5161,PAYLOAD,2023-04-08 17:51:26,15.08836186,0.0001247,53.2164,109.5,93.4798,266.6337,-2.2589e-05,-6.47e-06,0.0,0 STARLINK-5161,1 54163U 22141G   23098.74405296 -.00000647  00000-0 -22589-4 0  9997,2 54163  53.2164 109.5000 0001247  93.4798 266.6337 15.08836186 24938,6917.892,95.438,540.62,538.894,0.0
54163.0,STARLINK-5161,PAYLOAD,2023-04-09 09:45:17,15.08845001,0.000129,53.2157,106.5277,95.9863,264.1277,0.00018655,2.683e-05,0.0,0 STARLINK-5161,1 54163U 22141G   23099.40645235  .00002683  00000-0  18655-3 0  9998,2 54163  53.2157 106.5277 0001290  95.9863 264.1277 15.08845001 25035,6917.865,95.437,540.623,538.838,0.0
54163.0,STARLINK-5161,PAYLOAD,2023-04-09 17:42:13,15.08837175,0.0001254,53.2154,105.0405,93.7487,266.3648,3.3434e-05,2.44e-06,0.0,0 STARLINK-5161,1 54163U 22141G   23099.73765573  .00000244  00000-0  33434-4 0  9996,2 54163  53.2154 105.0405 0001254  93.7487 266.3648 15.08837175 25081,6917.889,95.438,540.622,538.887,0.0
54163.0,STARLINK-5161,PAYLOAD,2023-04-10 00:03:46,15.08839407,0.0001311,53.216,103.8517,90.3115,269.8027,9.4665e-05,1.219e-05,0.0,0 STARLINK-5161,1 54163U 22141G   23100.00261605  .00001219  00000-0  94665-4 0  9992,2 54163  53.2160 103.8517 0001311  90.3115 269.8027 15.08839407 25127,6917.882,95.438,540.654,538.84,0.0
54163.0,STARLINK-5161,PAYLOAD,2023-04-10 06:25:18,15.08838788,0.0001392,53.2167,102.6621,87.2878,272.8273,5.9952e-05,6.66e-06,0.0,0 STARLINK-5161,1 54163U 22141G   23100.26757725  .00000666  00000-0  59952-4 0  9998,2 54163  53.2167 102.6621 0001392  87.2878 272.8273 15.08838788 25169,6917.884,95.438,540.712,538.786,0.0
54163.0,STARLINK-5161,PAYLOAD,2023-04-10 17:33:00,15.0884113,0.0001351,53.2163,100.5812,86.246,273.8687,0.0001522,2.135e-05,0.0,0 STARLINK-5161,1 54163U 22141G   23100.73125783  .00002135  00000-0  15220-3 0  9995,2 54163  53.2163 100.5812 0001351  86.2460 273.8687 15.08841130 25238,6917.877,95.437,540.677,538.807,0.0
54163.0,STARLINK-5161,PAYLOAD,2023-04-11 04:40:42,15.08845601,0.0001385,53.2165,98.4999,85.5609,274.5541,0.00026527,3.937e-05,0.0,0 STARLINK-5161,1 54163U 22141G   23101.19493678  .00003937  00000-0  26527-3 0  9990,2 54163  53.2165  98.4999 0001385  85.5609 274.5541 15.08845601 25307,6917.863,95.437,540.686,538.77,0.0
54163.0,STARLINK-5161,PAYLOAD,2023-04-11 11:02:14,15.0885151,0.0001305,53.2165,97.309,93.4821,266.6321,0.00034609,5.226e-05,0.0,0 STARLINK-5161,1 54163U 22141G   23101.45989348  .00005226  00000-0  34609-3 0  9996,2 54163  53.2165  97.3090 0001305  93.4821 266.6321 15.08851510 25341,6917.845,95.437,540.613,538.807,0.0
54163.0,STARLINK-5161,PAYLOAD,2023-04-12 04:31:29,15.08838197,0.0001751,53.2183,94.0389,113.3541,246.7636,5.247e-05,5.47e-06,0.0,0 STARLINK-5161,1 54163U 22141G   23102.18853906  .00000547  00000-0  52470-4 0  9995,2 54163  53.2183  94.0389 0001751 113.3541 246.7636 15.08838197 25458,6917.886,95.438,540.962,538.54,0.0
54163.0,STARLINK-5161,PAYLOAD,2023-04-12 09:17:39,15.08838907,0.0001319,53.2166,93.1455,92.4982,267.6161,8.7342e-05,1.102e-05,0.0,0 STARLINK-5161,1 54163U 22141G   23102.38726023  .00001102  00000-0  87342-4 0  9990,2 54163  53.2166  93.1455 0001319  92.4982 267.6161 15.08838907 25486,6917.884,95.438,540.661,538.836,0.0
54163.0,STARLINK-5161,PAYLOAD,2023-04-13 05:57:39,15.08846836,0.0001332,53.217,89.2795,95.0476,265.0668,0.00022658,3.321e-05,0.0,0 STARLINK-5161,1 54163U 22141G   23103.24837807  .00003321  00000-0  22658-3 0  9992,2 54163  53.2170  89.2795 0001332  95.0476 265.0668 15.08846836 25615,6917.859,95.437,540.646,538.803,0.0
54163.0,STARLINK-5161,PAYLOAD,2023-04-13 15:29:58,15.08834472,0.0001264,53.2176,87.4958,123.4169,236.6944,3.8564e-05,3.26e-06,0.0,0 STARLINK-5161,1 54163U 22141G   23103.64582171  .00000326  00000-0  38564-4 0  9993,2 54163  53.2176  87.4958 0001264 123.4169 236.6944 15.08834472 25671,6917.897,95.438,540.637,538.888,0.0
54163.0,STARLINK-5161,PAYLOAD,2023-04-14 04:13:03,15.08845839,0.00013,53.2175,85.116,96.4063,263.7077,0.00023545,3.462e-05,0.0,0 STARLINK-5161,1 54163U 22141G   23104.17573914  .00003462  00000-0  23545-3 0  9993,2 54163  53.2175  85.1160 0001300  96.4063 263.7077 15.08845839 25759,6917.863,95.437,540.627,538.828,0.0
54163.0,STARLINK-5161,PAYLOAD,2023-04-14 08:59:13,15.08853345,0.0001173,53.2171,84.2256,92.0076,268.1051,0.00047536,7.288e-05,0.0,0 STARLINK-5161,1 54163U 22141G   23104.37445710  .00007288  00000-0  47536-3 0  9993,2 54163  53.2171  84.2256 0001173  92.0076 268.1051 15.08853345 25780,6917.84,95.437,540.516,538.893,0.0
54163.0,STARLINK-5161,PAYLOAD,2023-04-15 05:39:14,15.08840511,0.0001033,53.2161,80.3612,97.2872,262.8238,0.00010708,1.417e-05,0.0,0 STARLINK-5161,1 54163U 22141G   23105.23557875  .00001417  00000-0  10708-3 0  9994,2 54163  53.2161  80.3612 0001033  97.2872 262.8238 15.08840511 25912,6917.879,95.438,540.458,539.029,0.0
54163.0,STARLINK-5161,PAYLOAD,2023-04-15 07:14:37,15.0884479,0.0001247,53.2169,80.0646,95.0859,265.0276,0.00011578,1.555e-05,0.0,0 STARLINK-5161,1 54163U 22141G   23105.30181936  .00001555  00000-0  11578-3 0  9992,2 54163  53.2169  80.0646 0001247  95.0859 265.0276 15.08844790 25923,6917.866,95.437,540.593,538.868,0.0
54163.0,STARLINK-5161,PAYLOAD,2023-04-15 15:11:33,15.08840318,0.0001135,53.2164,78.5774,97.7628,262.3493,0.00014889,2.083e-05,0.0,0 STARLINK-5161,1 54163U 22141G   23105.63302145  .00002083  00000-0  14889-3 0  9990,2 54163  53.2164  78.5774 0001135  97.7628 262.3493 15.08840318 25979,6917.879,95.438,540.53,538.959,0.0
54163.0,STARLINK-5161,PAYLOAD,2023-04-16 07:05:24,15.08847678,0.0001221,53.2165,75.602,93.525,266.5882,0.00032125,4.83e-05,0.0,0 STARLINK-5161,1 54163U 22141G   23106.29542025  .00004830  00000-0  32125-3 0  9991,2 54163  53.2165  75.6020 0001221  93.5250 266.5882 15.08847678 26079,6917.857,95.437,540.567,538.877,0.0
54163.0,STARLINK-5161,PAYLOAD,2023-04-17 06:56:11,15.08844991,0.000129,53.2163,71.1421,101.3393,258.7744,0.00040596,6.18e-05,0.0,0 STARLINK-5161,1 54163U 22141G   23107.28902435  .00006180  00000-0  40596-3 0  9997,2 54163  53.2163  71.1421 0001290 101.3393 258.7744 15.08844991 26227,6917.865,95.437,540.623,538.838,0.0
54163.0,STARLINK-5161,PAYLOAD,2023-04-18 06:46:59,15.08845242,0.0001445,53.2169,66.6793,104.1636,255.9517,0.00034533,5.213e-05,0.0,0 STARLINK-5161,1 54163U 22141G   23108.28262750  .00005213  00000-0  34533-3 0  9997,2 54163  53.2169  66.6793 0001445 104.1636 255.9517 15.08845242 26370,6917.864,95.437,540.729,538.73,0.0
